CZ-2C R/B               
1 54039U 22132E   26047.98463675  .00044453  00000+0  54473-3 0  9993
2 54039  97.2956  50.7049 0019484 159.2531 200.9521 15.60000223187147
GSLV R/B                
1 54149U 22138AN  26047.86065870  .00003672  00000+0  31884-3 0  9992
2 54149  87.3872 173.3313 0019993 222.7563 137.2114 14.96611336180816
XRISM                   
1 57800U 23137A   26048.16723056  .00006115  00000+0  34901-3 0  9998
2 57800  31.0027  56.3724 0008189 195.0518 164.9877 15.11240386134682
ACS3                    
1 59588U 24077B   26047.82550750  .00016995  00000+0  13969-1 0  9994
2 59588  97.2185 353.6281 0047649 138.6362 221.8426 13.88700703 91301
SZ-21 MODULE            
1 66515U 25246C   26048.17866810  .00037852  00000+0  34761-3 0  9997
2 66515  41.4766 329.4655 0001968 297.4736  62.5905 15.66957917 14850
